{"type":"FeatureCollection","features":[{"type":"Feature","properties":{"name":"Washington Border"},"geometry":{"type":"LineString","coordinates":[[-75.1849365234375,39.9401461550766],[-75.1779413223267,39.9392577450871],[-75.1666975021362,39.9378099411312],[-75.1615476608276,39.9372176488661],[-75.1508617401123,39.9344206439103]]}},{"type":"Feature","properties":{"name":"Front St Border"},"geometry":{"type":"LineString","coordinates":[[-75.1508617401123,39.9344206439103],[-75.1490700244904,39.934050443512],[-75.1456797122955,39.9336391073876],[-75.1452612876892,39.9355147800492],[-75.1451110839844,39.9355559126456]]}},{"type":"Feature","properties":{"name":"Grey's Ferry Border"},"geometry":{"type":"LineString","coordinates":[[-75.1849365234375,39.9401461550766],[-75.1859879493713,39.9403106741792],[-75.1864385604858,39.9406068075672],[-75.1867604255676,39.94078777734],[-75.1869535446167,39.9408864879235],[-75.1905155181885,39.9425316433502]]}},{"type":"Feature","properties":{"name":"Railway Border"},"geometry":{"type":"LineString","coordinates":[[-75.1909232139587,39.9427784132525],[-75.1862668991089,39.9463482516022],[-75.1818037033081,39.9499179036835]]}},{"type":"Feature","properties":{"name":"River Border"},"geometry":{"type":"LineString","coordinates":[[-75.1818037033081,39.9499179036835],[-75.1802158355713,39.9525168880099],[-75.1791000366211,39.9552144634941],[-75.1784992218018,39.9573198143348],[-75.1786708831787,39.9594251003614],[-75.179615020752,39.9617934696671],[-75.1815891265869,39.9635039075931],[-75.1831340789795,39.9650169516287],[-75.1833915710449,39.9673851272444],[-75.184850692749,39.9694243238443],[-75.1849365234375,39.9706083455678]]}},{"type":"Feature","properties":{"name":"Poplar Street"},"geometry":{"type":"LineString","coordinates":[[-75.1849365234375,39.9706083455678],[-75.1869106292725,39.9728447750879],[-75.1874256134033,39.9735683101481],[-75.1775550842285,39.9724501163722],[-75.1706027984619,39.9715292371734],[-75.1676845550537,39.971167459808],[-75.1643800735474,39.9707727914073],[-75.1598310470581,39.9701807845335]]}},{"type":"Feature","properties":{"name":"Poplar Street"},"geometry":{"type":"LineString","coordinates":[[-75.1598310470581,39.9701807845335],[-75.1559686660767,39.969292764609],[-75.1512908935547,39.9681416104999],[-75.1470851898193,39.9670891097788],[-75.1414632797241,39.9644906792402],[-75.1391887664795,39.9635696928126]]}},{"type":"Feature","properties":{"name":"East Border"},"geometry":{"type":"LineString","coordinates":[[-75.1391887664795,39.9635696928126],[-75.1408195495605,39.9605435072003],[-75.1399612426758,39.9603790367536],[-75.1401114463806,39.9601981188053],[-75.1405620574951,39.9575007398984],[-75.1406264305115,39.956974409657],[-75.141613483429,39.9571224404468],[-75.1417207717896,39.9544084917207]]}},{"type":"Feature","properties":{"name":"East Border"},"geometry":{"type":"LineString","coordinates":[[-75.1417207717896,39.9544084917207],[-75.1414847379303,39.952064519055],[-75.1415812982696,39.9510899136791],[-75.1417851448059,39.950230444997],[-75.1418629,39.9496684],[-75.142148,39.9496684],[-75.1421661,39.9495922],[-75.1422495,39.9491998],[-75.1422945,39.9489875],[-75.142314,39.9488899],[-75.1423302,39.948814],[-75.1423721,39.9486174],[-75.1423896,39.9485355],[-75.1424226,39.9483805],[-75.1424491,39.948256],[-75.1424656,39.9481794],[-75.1424777,39.9481241],[-75.142571,39.9477024],[-75.1426688,39.947256],[-75.142699,39.9471239],[-75.1427404,39.9469377],[-75.1427602,39.9468506],[-75.1427917,39.9467065],[-75.142806,39.946641],[-75.142855,39.946414],[-75.14288,39.946305],[-75.143081,39.9453669],[-75.1431035,39.9452624],[-75.1430074,39.9452509],[-75.1422099,39.9451554],[-75.1421298,39.9451433],[-75.1420497,39.9451311],[-75.1420695,39.9450261],[-75.1420953,39.9448857],[-75.1421771,39.9443551],[-75.1421907,39.9442506],[-75.1422011,39.9441706],[-75.1423213,39.9441877],[-75.14300956204274,39.94427361346382],[-75.1433944702149,39.9424493865183],[-75.1439952850342,39.9392906493665],[-75.1452612876892,39.9355147800492]]}},{"type":"Feature","properties":{"name":"South Street Bridge"},"geometry":{"type":"LineString","coordinates":[[-75.1862668991089,39.9463482516022],[-75.1878547668457,39.9475162227857]]}},{"type":"Feature","properties":{"name":"South on Front street"},"geometry":{"type":"LineString","coordinates":[[-75.1456797,39.9336391],[-75.1483266,39.9203783]]}},{"type":"Feature","properties":{"name":"Line 3"},"geometry":{"type":"LineString","coordinates":[[-75.1483266,39.9203783],[-75.1479419,39.9176002]]}},{"type":"Feature","properties":{"name":"Line 4"},"geometry":{"type":"LineString","coordinates":[[-75.1479419,39.9176002],[-75.1478453,39.9159956],[-75.1481565,39.9148435]]}},{"type":"Feature","properties":{"name":"Line 5"},"geometry":{"type":"LineString","coordinates":[[-75.1481565,39.9148435],[-75.1484354,39.9137326]]}},{"type":"Feature","properties":{"name":"Line 6"},"geometry":{"type":"LineString","coordinates":[[-75.1484354,39.9137326],[-75.14865,39.9131771]]}},{"type":"Feature","properties":{"name":"Line 7"},"geometry":{"type":"LineString","coordinates":[[-75.1487251,39.9130454],[-75.1488646,39.9124365],[-75.1502593,39.9125023],[-75.150549,39.9125188],[-75.1508387,39.9123377],[-75.1513429,39.9123213],[-75.1516863,39.9124529],[-75.1521262,39.9125105],[-75.1525768,39.9124776],[-75.1530274,39.9122472],[-75.1533171,39.9119345],[-75.15336,39.9118275],[-75.1541003,39.9117864],[-75.1550444,39.9117534],[-75.155731,39.911811],[-75.1563748,39.9118522],[-75.1570292,39.9119263]]}},{"type":"Feature","properties":{"name":"Line 8"},"geometry":{"type":"LineString","coordinates":[[-75.1570292,39.9119263],[-75.1576837,39.9120415],[-75.1575979,39.9123624],[-75.1580056,39.9123912],[-75.1582523,39.9124365],[-75.1587029,39.9125023],[-75.1591321,39.9125517],[-75.159513,39.9126052],[-75.1602372,39.912708]]}},{"type":"Feature","properties":{"name":"Line 9"},"geometry":{"type":"LineString","coordinates":[[-75.1602372,39.912708],[-75.1605966,39.912741],[-75.1606824,39.9124365]]}},{"type":"Feature","properties":{"name":"Line 10"},"geometry":{"type":"LineString","coordinates":[[-75.1606824,39.9124365],[-75.1615675,39.9125435],[-75.1616158,39.9122719],[-75.162163,39.9123213],[-75.1628282,39.9119962],[-75.1630535,39.9119962],[-75.1630964,39.9119098],[-75.1635953,39.9119756],[-75.1636221,39.9118152]]}},{"type":"Feature","properties":{"name":"Line 11"},"geometry":{"type":"LineString","coordinates":[[-75.1637401,39.9118357],[-75.1636221,39.9118152],[-75.1652368,39.9120291],[-75.1653012,39.9116218],[-75.1652851,39.9117082]]}},{"type":"Feature","properties":{"name":"Line 13"},"geometry":{"type":"LineString","coordinates":[[-75.1653924,39.9112679],[-75.1654889,39.9108235]]}},{"type":"Feature","properties":{"name":"Rail Track Connector"},"geometry":{"type":"LineString","coordinates":[[-75.1851844,39.9391144],[-75.1852303,39.9390579],[-75.1852675,39.9392834],[-75.1853277,39.9394764],[-75.185442,39.9397184],[-75.1855389,39.9398754],[-75.1856667,39.9400487],[-75.1857367,39.9400596],[-75.1858394,39.9401755],[-75.18595,39.9402779],[-75.1860746,39.9403817],[-75.1861879,39.9404677],[-75.1862987,39.9405396],[-75.1864007,39.9405951],[-75.1865446,39.9406688],[-75.186675,39.9407347],[-75.186989,39.940881],[-75.187283,39.941016],[-75.1875657,39.9411449],[-75.1880502,39.9413696],[-75.1884571,39.9415564],[-75.1887493,39.9416922],[-75.189338,39.94196],[-75.1898487,39.9422163],[-75.19019,39.942399],[-75.1909232139587,39.9427784132525]]}},{"type":"Feature","properties":{"name":"Line 25"},"geometry":{"type":"LineString","coordinates":[[-75.1893366,39.9230511],[-75.1913322,39.9233824],[-75.199572,39.9319554]]}},{"type":"Feature","properties":{"name":"Line 26"},"geometry":{"type":"LineString","coordinates":[[-75.199572,39.9319554],[-75.199806,39.932489],[-75.1997631,39.9331965],[-75.1996021,39.9339945],[-75.1994197,39.934957]]}},{"type":"Feature","properties":{"name":"Line 27"},"geometry":{"type":"LineString","coordinates":[[-75.1994197,39.934957],[-75.2003678,39.9349967],[-75.2004536,39.9347499],[-75.2025994,39.9353257]]}},{"type":"Feature","properties":{"name":"Line 28"},"geometry":{"type":"LineString","coordinates":[[-75.2025994,39.9353257],[-75.2016767,39.9361319]]}},{"type":"Feature","properties":{"name":"Line 29"},"geometry":{"type":"LineString","coordinates":[[-75.2016767,39.9361319],[-75.2004966,39.9374646],[-75.1996168,39.9383201]]}},{"type":"Feature","properties":{"name":"Line 30"},"geometry":{"type":"LineString","coordinates":[[-75.1996382,39.9385011],[-75.1983293,39.9395376],[-75.1978164,39.9399808],[-75.1964432,39.9404743],[-75.195499,39.9407705],[-75.194233,39.9410666],[-75.192731,39.9415601],[-75.1913577,39.9423334],[-75.1909232,39.9427784]]}},{"type":"Feature","properties":{"name":"Line 19"},"geometry":{"type":"LineString","coordinates":[[-75.1654889,39.9108235],[-75.1721608,39.9117004],[-75.1688134,39.9112066]]}},{"type":"Feature","properties":{"name":"Line 20"},"geometry":{"type":"LineString","coordinates":[[-75.1721608,39.9117004],[-75.1733854,39.9119902],[-75.1744583,39.9120725],[-75.1814535,39.9129448],[-75.1820543,39.9137348],[-75.1837066,39.9138006],[-75.1887277,39.9145906],[-75.1898864,39.9157098]]}},{"type":"Feature","properties":{"name":"South 25th Street Northbound"},"geometry":{"type":"LineString","coordinates":[[-75.1898864,39.9157098],[-75.1886064,39.9229731],[-75.1886658,39.9230083],[-75.1885799,39.9234349],[-75.1884952,39.9238202],[-75.1884069,39.9242224],[-75.1881392,39.925441],[-75.1881254,39.925504],[-75.1881144,39.9255537],[-75.1878772,39.9266305],[-75.187861,39.9267076],[-75.1878414,39.9267948],[-75.1876814,39.9275051],[-75.1876521,39.9276351],[-75.1875909,39.9279315],[-75.1875763,39.9279971],[-75.1873165,39.9291615],[-75.187051,39.9303882],[-75.1867902,39.9315925],[-75.1865215,39.9328341],[-75.186261,39.934059],[-75.1860005,39.9352645],[-75.185739,39.9364801],[-75.1854905,39.9375951],[-75.1853849,39.9380581],[-75.1852863,39.9385162],[-75.1852334,39.9388277],[-75.1851844,39.9391144]]}}]}
